COSMOS 2425 (716)       
1 29670U 06062A   21060.56015913  .00000066  00000-0  00000+0 0  9998
2 29670  64.8742 259.0936 0024743 349.8009 184.2470  2.13113630110361
COSMOS 2433 (720)       
1 32275U 07052A   21060.67418624 -.00000041  00000-0  00000-0 0  9996
2 32275  66.0458  20.3641 0004820 271.3775 168.6179  2.13104206103890
COSMOS 2432 (719)       
1 32276U 07052B   21060.67502755 -.00000041  00000-0  00000-0 0  9996
2 32276  66.0567  20.4572 0012336 322.9554  67.2189  2.13103580103894
COSMOS 2434 (721)       
1 32393U 07065A   21061.42086468  .00000066  00000-0  00000+0 0  9997
2 32393  64.4846 257.5753 0004975  77.2490 103.6666  2.13103164102611
COSMOS 2436 (723)       
1 32395U 07065C   21060.59905579  .00000066  00000-0  00000-0 0  9990
2 32395  64.5006 257.6540 0016152   7.1744  39.4084  2.13102974102530
COSMOS 2456 (730)       
1 36111U 09070A   21061.50284737  .00000028  00000-0  00000+0 0  9993
2 36111  64.2586 137.2497 0004027 310.9390 104.8261  2.13099143 87285
COSMOS 2457 (733)       
1 36112U 09070B   21060.70168847  .00000034  00000-0  00000-0 0  9996
2 36112  64.2419 137.1642 0005305 169.9475 114.7263  2.13101391 87267
COSMOS 2459 (731)       
1 36400U 10007A   21060.64269723 -.00000042  00000-0  00000-0 0  9996
2 36400  65.9430  19.3036 0026804 345.4427 286.6436  2.13105128 85600
COSMOS 2461 (735)       
1 36401U 10007B   21060.64443769 -.00000042  00000-0  00000-0 0  9991
2 36401  65.9393  19.2678 0021088   0.6426 274.5849  2.13103839 85610
COSMOS 2460 (732)       
1 36402U 10007C   21060.70776920 -.00000042  00000-0  00000-0 0  9997
2 36402  65.9248  19.2266 0002536 302.3298 325.2210  2.13106615 85610
COSMOS 2464 (736)       
1 37139U 10041C   21060.84561101  .00000065  00000-0  00000-0 0  9995
2 37139  64.0899 256.9047 0029125  13.9645 307.3473  2.13100779 81670
COSMOS 2471 (701K)      
1 37372U 11009A   21061.38363275 -.00000043  00000-0  00000+0 0  9997
2 37372  65.9230  19.1435 0009684 237.7073 352.0271  2.13107731 77906
COSMOS 2476 (744)       
1 37867U 11064A   21061.52807679  .00000028  00000-0  00000+0 0  9996
2 37867  64.5552 138.4197 0020655 237.5492  99.0044  2.13101902 72625
COSMOS 2477 (745)       
1 37868U 11064B   21060.62341397  .00000035  00000-0  00000-0 0  9996
2 37868  64.5640 138.5104 0018134 238.2479 302.6534  2.13101681 72569
COSMOS 2475 (743)       
1 37869U 11064C   21061.50298209  .00000028  00000-0  00000+0 0  9999
2 37869  64.5701 138.4834 0022025 258.3786 194.9015  2.13101839 72599
COSMOS 2485 (747)       
1 39155U 13019A   21061.53716243  .00000028  00000-0  00000+0 0  9997
2 39155  64.7208 138.7464 0021058 232.7634 155.2596  2.13101853 61103
COSMOS 2492 (754)       
1 39620U 14012A   21060.67739229 -.00000043  00000-0  00000-0 0  9990
2 39620  65.8148  18.9741 0015540 320.8849 162.4619  2.13103297 54032
COSMOS 2500 (755)       
1 40001U 14032A   21061.51700479 -.00000044  00000-0  00000+0 0  9996
2 40001  65.7552  18.8425 0006532 226.5465  40.8045  2.13102566 52263
COSMOS 2501 (702K)      
1 40315U 14075A   21060.76866917  .00000064  00000-0  00000-0 0  9999
2 40315  63.8038 257.7545 0015451 207.2772  11.9247  2.13101262 48656
COSMOS 2514 (751)       
1 41330U 16008A   21060.58423150 -.00000043  00000-0  00000+0 0  9990
2 41330  65.5569  18.6814 0010386 227.7901 226.9134  2.13102968 39419
COSMOS 2516 (753)       
1 41554U 16032A   21060.73590694  .00000064  00000-0  00000+0 0  9992
2 41554  64.0283 257.8990 0011109 214.0475 249.9306  2.13106793 37026
COSMOS 2522 (752)       
1 42939U 17055A   21060.68725571  .00000065  00000-0  00000-0 0  9996
2 42939  64.2638 258.1559 0005077 250.3805  41.3497  2.13102055 26774
COSMOS 2527 (756)       
1 43508U 18053A   21061.32435282  .00000030  00000-0  00000+0 0  9998
2 43508  64.8855 138.6554 0007915 230.5123 221.9855  2.13102594 21088
COSMOS 2529 (757)       
1 43687U 18086A   21060.79246060  .00000065  00000-0  00000-0 0  9995
2 43687  64.4756 258.3411 0007812 280.5546  47.4379  2.13102152 18082
COSMOS 2534 (758)       
1 44299U 19030A   21061.39700863  .00000065  00000-0  00000+0 0  9997
2 44299  64.5427 258.1627 0011393 300.0874 266.5771  2.13102014 13741
COSMOS 2544 (759)       
1 44850U 19088A   21060.84249874  .00000034  00000-0  00000-0 0  9999
2 44850  64.8699 138.5330 0012065 262.8294 223.8589  2.13102403  9513
COSMOS 2545 (760)       
1 45358U 20018A   21060.58228012 -.00000044  00000-0  00000-0 0  9992
2 45358  64.8872  19.6796 0010595 260.5736 236.6409  2.13102810  7453
